     2.100          NAVIGATION                              RINEX VERSION / TYPE
fic2rin                                 12/23/2011 00:06:38 PGM / RUN BY / DATE
                                                            END OF HEADER
13 11 12 22 12  0  0.0  .234912615269D-03 -.204636307899D-11  .000000000000D+00
     .650000000000D+02  .122781250000D+03  .395016454021D-08  .274054217488D+01
     .640749931335D-05  .462535140105D-02  .261887907982D-05  .515374352837D+04
     .388800000000D+06 -.111758708954D-07 -.244902746353D+01 -.745058059692D-08
     .987689360655D+00  .342781250000D+03  .194311347059D+01 -.802497712965D-08
     .275368613065D-09  .100000000000D+01  .166700000000D+04  .000000000000D+00
     .240000000000D+01  .000000000000D+00 -.116415321827D-07  .650000000000D+02
     .381606000000D+06  .400000000000D+01
14 11 12 22 12  0  0.0  .186838209629D-03  .159161572810D-11  .000000000000D+00
     .320000000000D+02  .113531250000D+03  .399552357245D-08  .275640536072D+01
     .589340925217D-05  .625438475981D-02  .241398811340D-05  .515375549316D+04
     .388800000000D+06  .104308128357D-06 -.247464291918D+01 -.465661287308D-07
     .980626083493D+00  .341562500000D+03 -.205323597489D+01 -.797283210046D-08
     .295726603914D-09  .100000000000D+01  .166700000000D+04  .000000000000D+00
     .240000000000D+01  .000000000000D+00 -.884756445885D-08  .320000000000D+02
     .381606000000D+06  .400000000000D+01
15 11 12 22 12  0  0.0 -.961958430707D-04  .795807864051D-12  .000000000000D+00
     .380000000000D+02  .130593750000D+03  .475805533496D-08  .244926081652D+01
     .680238008499D-05  .414327834733D-02  .344030559063D-05  .515374614143D+04
     .388800000000D+06 -.633299350739D-07 -.255727663686D+01  .745058059692D-07
     .947644693411D+00  .306187500000D+03 -.300616674577D-01 -.839249243814D-08
     .243581574722D-09  .100000000000D+01  .166700000000D+04  .000000000000D+00
     .240000000000D+01  .000000000000D+00 -.102445483208D-07  .380000000000D+02
     .381606000000D+06  .400000000000D+01
16 11 12 22 12  0  0.0 -.215171370655D-03 -.193267624127D-11  .000000000000D+00
     .220000000000D+02 -.102906250000D+03  .381123018161D-08 -.217182597631D+01
    -.545196235180D-05  .623649754561D-02  .123996287584D-04  .515358828545D+04
     .388800000000D+06 -.115483999252D-06 -.402586318868D+00 -.800937414169D-07
     .979088797973D+00  .152375000000D+03 -.820646001257D-01 -.755352892051D-08
     .361800784741D-09  .100000000000D+01  .166700000000D+04  .000000000000D+00
     .240000000000D+01  .000000000000D+00 -.977888703346D-08  .220000000000D+02
     .381606000000D+06  .400000000000D+01
17 11 12 22 12  0  0.0  .159136485308D-03 -.216004991671D-11  .000000000000D+00
     .540000000000D+02  .953125000000D+01  .473841165958D-08 -.309346767976D+01
     .501051545143D-06  .691815046594D-02  .795722007751D-05  .515360684967D+04
     .388800000000D+06 -.167638063431D-07  .638367122484D+00 -.154599547386D-06
     .962178885470D+00  .225187500000D+03 -.238617677094D+01 -.784175521201D-08
     .566452166435D-09  .100000000000D+01  .166700000000D+04  .000000000000D+00
     .240000000000D+01  .000000000000D+00 -.107102096081D-07  .540000000000D+02
     .381606000000D+06  .400000000000D+01
18 11 12 22 12  0  0.0  .173073727638D-03  .181898940355D-11  .000000000000D+00
     .480000000000D+02  .817500000000D+02  .477127017113D-08 -.165899095305D+01
     .417418777943D-05  .127342875348D-01  .111069530249D-04  .515366210747D+04
     .388800000000D+06  .344589352608D-06  .271189282755D+01 -.838190317154D-07
     .931259330666D+00  .151750000000D+03 -.220100866114D+01 -.787818530090D-08
    -.395730769489D-09  .100000000000D+01  .166700000000D+04  .000000000000D+00
     .240000000000D+01  .000000000000D+00 -.111758708954D-07  .480000000000D+02
     .381606000000D+06  .400000000000D+01
19 11 12 22 12  0  0.0 -.217739492655D-03 -.397903932026D-11  .000000000000D+00
     .430000000000D+02  .144062500000D+02  .497913597243D-08  .238084586527D+01
     .828877091408D-06  .775127543602D-02  .722706317902D-05  .515372018051D+04
     .388800000000D+06 -.169500708580D-06  .691813693434D+00  .100582838058D-06
     .959558326667D+00  .239937500000D+03  .137183027504D+00 -.801176229349D-08
     .542879755978D-09  .100000000000D+01  .166700000000D+04  .000000000000D+00
     .240000000000D+01  .000000000000D+00 -.144354999065D-07  .430000000000D+02
     .381606000000D+06  .400000000000D+01
20 11 12 22 12  0  0.0  .585047528148D-04  .682121026330D-12  .000000000000D+00
     .750000000000D+02  .840000000000D+02  .488198906873D-08 -.120517265056D+01
     .424496829510D-05  .501141778659D-02  .119395554066D-04  .515381299591D+04
     .388800000000D+06  .186264514923D-08  .265809049541D+01  .108033418655D-06
     .931553542510D+00  .133250000000D+03  .126001507797D+01 -.809676583423D-08
    -.513235664040D-09  .100000000000D+01  .166700000000D+04  .000000000000D+00
     .240000000000D+01  .000000000000D+00 -.791624188423D-08  .750000000000D+02
     .381606000000D+06  .400000000000D+01
21 11 12 22 12  0  0.0 -.192522071302D-03 -.250111042988D-11  .000000000000D+00
     .620000000000D+02 -.179375000000D+02  .568273670879D-08 -.588164610411D+00
    -.847503542900D-06  .183182845358D-01  .622309744358D-05  .515366617393D+04
     .388800000000D+06 -.204890966415D-07  .165952551063D+01  .363215804100D-06
     .930960285341D+00  .242687500000D+03 -.230936289394D+01 -.877036532092D-08
    -.575738267524D-09  .100000000000D+01  .166700000000D+04  .000000000000D+00
     .240000000000D+01  .000000000000D+00 -.111758708954D-07  .620000000000D+02
     .381606000000D+06  .400000000000D+01
22 11 12 22 12  0  0.0  .143089331686D-03  .000000000000D+00  .000000000000D+00
     .400000000000D+02  .896875000000D+02  .482662961993D-08 -.252375438109D+01
     .460632145405D-05  .574203790165D-02  .110566616058D-04  .515370080566D+04
     .388800000000D+06  .223517417908D-07  .271559861117D+01 -.633299350739D-07
     .928971028355D+00  .151000000000D+03 -.197848015153D+01 -.788568561332D-08
    -.375372778640D-09  .100000000000D+01  .166700000000D+04  .000000000000D+00
     .240000000000D+01  .000000000000D+00 -.167638063431D-07  .400000000000D+02
     .381606000000D+06  .400000000000D+01
23 11 12 22 12  0  0.0  .248650088906D-03 -.329691829393D-11  .000000000000D+00
     .890000000000D+02  .137687500000D+03  .454661795632D-08  .190873499374D+01
     .716373324394D-05  .750587135553D-02  .298768281937D-05  .515369732857D+04
     .388800000000D+06 -.707805156708D-07 -.252387948253D+01  .521540641785D-07
     .962263464079D+00  .324093750000D+03 -.302967189820D+01 -.835249077191D-08
     .193936649668D-09  .100000000000D+01  .166700000000D+04  .000000000000D+00
     .240000000000D+01  .000000000000D+00 -.204890966415D-07  .890000000000D+02
     .381606000000D+06  .400000000000D+01
25 11 12 22 12  0  0.0  .304328277707D-04  .454747350886D-12  .000000000000D+00
     .250000000000D+02 -.106687500000D+03  .415553023737D-08 -.116497345821D+01
    -.555627048016D-05  .103560963180D-02  .111814588308D-04  .515379225349D+04
     .388800000000D+06  .391155481339D-07 -.452875636111D+00 -.111758708954D-07
     .966986489246D+00  .169125000000D+03  .804975354455D+00 -.776532345689D-08
     .206080012631D-09  .100000000000D+01  .166700000000D+04  .000000000000D+00
     .240000000000D+01  .000000000000D+00  .512227416039D-08  .250000000000D+02
     .381606000000D+06  .400000000000D+01
26 11 12 22 12  0  0.0 -.270794145763D-03 -.139834810398D-10  .000000000000D+00
     .930000000000D+02  .123843750000D+03  .405231165219D-08  .177080438292D+01
     .602379441261D-05  .205513859401D-01  .367127358913D-05  .515365286827D+04
     .388800000000D+06 -.257045030594D-06 -.245451203118D+01 -.415369868279D-06
     .985269249425D+00  .320156250000D+03  .116686360250D+01 -.807819363205D-08
     .302512600864D-09  .100000000000D+01  .166700000000D+04  .000000000000D+00
     .240000000000D+01  .000000000000D+00 -.605359673500D-08  .930000000000D+02
     .381606000000D+06  .400000000000D+01
27 11 12 22 12  0  0.0  .338380225003D-03  .386535248253D-11  .000000000000D+00
     .112000000000D+03 -.836875000000D+02  .416588781166D-08  .272638376990D+01
    -.445172190666D-05  .219257335411D-01  .426545739174D-06  .515357971382D+04
     .388800000000D+06  .381842255592D-06 -.152987165727D+01  .912696123123D-07
     .981529610957D+00  .380750000000D+03 -.115969142425D+01 -.793890211571D-08
    -.242867259253D-09  .100000000000D+01  .166700000000D+04  .000000000000D+00
     .485000000000D+01  .000000000000D+00 -.419095158577D-08  .112000000000D+03
     .381606000000D+06  .400000000000D+01
28 11 12 22 12  0  0.0  .954545103014D-04  .352429196937D-11  .000000000000D+00
     .105000000000D+03 -.121593750000D+03  .371836917072D-08 -.250220505651D+01
    -.631436705589D-05  .176939426456D-01  .112485140562D-04  .515371511459D+04
     .388800000000D+06  .270083546638D-06 -.395647057659D+00  .577419996262D-07
     .977423913812D+00  .163968750000D+03 -.186383516326D+01 -.728673209307D-08
     .402516766439D-09  .100000000000D+01  .166700000000D+04  .000000000000D+00
     .340000000000D+01  .000000000000D+00 -.107102096081D-07  .105000000000D+03
     .381606000000D+06  .400000000000D+01
29 11 12 22 12  0  0.0  .268303323537D-03  .341060513165D-11  .000000000000D+00
     .670000000000D+02  .205937500000D+02  .489948979770D-08 -.347040671134D+00
     .117719173431D-05  .211429432966D-02  .746920704842D-05  .515365926361D+04
     .388800000000D+06  .484287738800D-07  .646854932219D+00 -.745058059692D-08
     .962665564668D+00  .237281250000D+03 -.119192645108D+01 -.815069665209D-08
     .568595112840D-09  .100000000000D+01  .166700000000D+04  .000000000000D+00
     .240000000000D+01  .000000000000D+00 -.931322574615D-08  .670000000000D+02
     .381606000000D+06  .400000000000D+01
